NORAD_CAT_ID,OBJECT_NAME,OBJECT_TYPE,EPOCH,MEAN_MOTION,ECCENTRICITY,INCLINATION,RA_OF_ASC_NODE,ARG_OF_PERICENTER,MEAN_ANOMALY,BSTAR,MEAN_MOTION_DOT,MEAN_MOTION_DDOT,TLE_LINE0,TLE_LINE1,TLE_LINE2,SEMIMAJOR_AXIS,PERIOD,APOGEE,PERIGEE,DECAYED
54177.0,STARLINK-5186,PAYLOAD,2023-01-15 09:24:23,15.08819109,0.0001283,53.2156,123.4487,91.7017,268.4123,-2.7153e-05,-7.2000000000000005e-06,0.0,0 STARLINK-5186,1 54177U 22141W   23015.39194271 -.00000720  00000-0 -27153-4 0  9994,2 54177  53.2156 123.4487 0001283  91.7017 268.4123 15.08819109 12355,6917.944,95.439,540.697,538.922,0.0
54177.0,STARLINK-5186,PAYLOAD,2023-01-15 14:10:31,15.08837729,8.88e-05,53.2167,122.5564,90.9475,269.1619,0.00011902,1.607e-05,0.0,0 STARLINK-5186,1 54177U 22141W   23015.59064662  .00001607  00000-0  11902-3 0  9993,2 54177  53.2167 122.5564 0000888  90.9475 269.1619 15.08837729 12381,6917.887,95.438,540.367,539.138,0.0
54177.0,STARLINK-5186,PAYLOAD,2023-01-15 23:42:51,15.08832385,8.950000000000001e-05,53.2162,120.773,99.3825,260.7269,5.5648e-05,5.98e-06,0.0,0 STARLINK-5186,1 54177U 22141W   23015.98809345  .00000598  00000-0  55648-4 0  9995,2 54177  53.2162 120.7730 0000895  99.3825 260.7269 15.08832385 12449,6917.904,95.438,540.388,539.15,0.0
54177.0,STARLINK-5186,PAYLOAD,2023-01-16 14:01:18,15.08857628,9.19e-05,53.2169,118.0957,95.816,264.2937,5.813e-05,6.38e-06,0.0,0 STARLINK-5186,1 54177U 22141W   23016.58424038  .00000638  00000-0  58130-4 0  9998,2 54177  53.2169 118.0957 0000919  95.8160 264.2937 15.08857628 12535,6917.826999999999,95.436,540.327,539.056,0.0
54177.0,STARLINK-5186,PAYLOAD,2023-01-16 17:12:04,15.08859869,9.44e-05,53.2164,117.5011,104.3656,255.7441,9.0386e-05,1.152e-05,0.0,0 STARLINK-5186,1 54177U 22141W   23016.71671531  .00001152  00000-0  90386-4 0  9996,2 54177  53.2164 117.5011 0000944 104.3656 255.7441 15.08859869 12555,6917.82,95.436,540.3380000000001,539.0319999999999,0.0
54177.0,STARLINK-5186,PAYLOAD,2023-01-16 23:33:38,15.08828932,0.0001425,53.2144,116.3112,81.09,279.0253,7.995e-06,-1.61e-06,0.0,0 STARLINK-5186,1 54177U 22141W   23016.98169985 -.00000161  00000-0  79950-5 0  9995,2 54177  53.2144 116.3112 0001425  81.0900 279.0253 15.08828932 12591,6917.914000000001,95.438,540.765,538.793,0.0
54177.0,STARLINK-5186,PAYLOAD,2023-01-17 09:05:59,15.08805226,5.8e-05,53.2176,114.5276,79.7692,280.3366,-0.00010998,-2.036e-05,0.0,0 STARLINK-5186,1 54177U 22141W   23017.37916092 -.00002036  00000-0 -10998-3 0  9997,2 54177  53.2176 114.5276 0000580  79.7692 280.3366 15.08805226 12658,6917.986999999999,95.44,540.253,539.45,0.0
54177.0,STARLINK-5186,PAYLOAD,2023-01-17 15:27:31,15.08826719,5.920000000000001e-05,53.216,113.3402,101.5518,258.5541,-0.0001075999999999,-1.999e-05,0.0,0 STARLINK-5186,1 54177U 22141W   23017.64411151 -.00001999  00000-0 -10760-3 0  9997,2 54177  53.2160 113.3402 0000592 101.5518 258.5541 15.08826719 12699,6917.920999999999,95.438,540.196,539.376,0.0
54177.0,STARLINK-5186,PAYLOAD,2023-01-18 12:07:29,15.08865392,7.68e-05,53.2166,109.471,103.8398,256.2679,9.4308e-05,1.215e-05,0.0,0 STARLINK-5186,1 54177U 22141W   23018.50520422  .00001215  00000-0  94308-4 0  9995,2 54177  53.2166 109.4710 0000768 103.8398 256.2679 15.08865392 12821,6917.803000000001,95.436,540.1990000000001,539.136,0.0
54177.0,STARLINK-5186,PAYLOAD,2023-01-18 23:15:11,15.08857353,6.74e-05,53.2148,107.3942,85.4916,274.6153,3.4834e-05,2.67e-06,0.0,0 STARLINK-5186,1 54177U 22141W   23018.96888697  .00000267  00000-0  34834-4 0  9990,2 54177  53.2148 107.3942 0000674  85.4916 274.6153 15.08857353 12898,6917.826999999999,95.436,540.159,539.226,0.0
54177.0,STARLINK-5186,PAYLOAD,2023-01-19 08:47:32,15.08820918,7.41e-05,53.2158,105.6089,80.5581,279.5494,0.00015857,2.236e-05,0.0,0 STARLINK-5186,1 54177U 22141W   23019.36634680  .00002236  00000-0  15857-3 0  9997,2 54177  53.2158 105.6089 0000741  80.5581 279.5494 15.08820918 12957,6917.939,95.439,540.316,539.2909999999999,0.0
54177.0,STARLINK-5186,PAYLOAD,2023-01-19 11:58:18,15.08835503,9.1e-05,53.2155,105.0121,122.4825,237.6255,0.00013157,1.807e-05,0.0,0 STARLINK-5186,1 54177U 22141W   23019.49882011  .00001807  00000-0  13157-3 0  9998,2 54177  53.2155 105.0121 0000910 122.4825 237.6255 15.08835503 12978,6917.894,95.438,540.389,539.13,0.0
54177.0,STARLINK-5186,PAYLOAD,2023-01-20 11:49:04,15.0885503,9.31e-05,53.2162,100.5501,115.2159,244.893,-7.8904e-05,-1.544e-05,0.0,0 STARLINK-5186,1 54177U 22141W   23020.49241408 -.00001544  00000-0 -78904-4 0  9991,2 54177  53.2162 100.5501 0000931 115.2159 244.8930 15.08855030 13126,6917.834,95.437,540.3430000000001,539.055,0.0
54177.0,STARLINK-5186,PAYLOAD,2023-01-21 10:04:29,15.08833908,9.27e-05,53.2161,96.3904,90.8636,269.2463,3.1721e-05,2.17e-06,0.0,0 STARLINK-5186,1 54177U 22141W   23021.41978180  .00000217  00000-0  31721-4 0  9998,2 54177  53.2161  96.3904 0000927  90.8636 269.2463 15.08833908 13264,6917.899,95.438,540.405,539.123,0.0
54177.0,STARLINK-5186,PAYLOAD,2023-01-21 14:50:37,15.08847167,0.0001376999999999,53.2171,95.4927,134.69799999999998,225.4125,1.9239e-06,-2.57e-06,0.0,0 STARLINK-5186,1 54177U 22141W   23021.61849230 -.00000257  00000-0  19239-5 0  9999,2 54177  53.2171  95.4927 0001377 134.6980 225.4125 15.08847167 13293,6917.858,95.437,540.6759999999999,538.771,0.0
54177.0,STARLINK-5186,PAYLOAD,2023-01-22 03:33:43,15.08837218,0.0001665,53.217,93.1165,78.0382,282.0796,2.2174e-05,6.5e-07,0.0,0 STARLINK-5186,1 54177U 22141W   23022.14842163  .00000065  00000-0  22174-4 0  9993,2 54177  53.2170  93.1165 0001665  78.0382 282.0796 15.08837218 13376,6917.889,95.438,540.906,538.602,0.0
54177.0,STARLINK-5186,PAYLOAD,2023-01-22 11:30:38,15.08849493,5.429999999999999e-05,53.2171,91.6305,73.1821,286.9231,0.00012781,1.748e-05,0.0,0 STARLINK-5186,1 54177U 22141W   23022.47960798  .00001748  00000-0  12781-3 0  9995,2 54177  53.2171  91.6305 0000543  73.1821 286.9231 15.08849493 13425,6917.851,95.437,540.092,539.341,0.0
54177.0,STARLINK-5186,PAYLOAD,2023-01-23 03:24:31,15.0881647,6.22e-05,53.2176,88.6592,107.4229,252.6831,-0.0001082999999999,-2.01e-05,0.0,0 STARLINK-5186,1 54177U 22141W   23023.14203602 -.00002010  00000-0 -10830-3 0  9992,2 54177  53.2176  88.6592 0000622 107.4229 252.6831 15.08816470 13521,6917.951999999999,95.439,540.248,539.387,0.0
54177.0,STARLINK-5186,PAYLOAD,2023-01-23 11:21:26,15.08839185,0.0001383,53.2167,87.1706,87.7701,272.345,-7.2656e-05,-1.444e-05,0.0,0 STARLINK-5186,1 54177U 22141W   23023.47322398 -.00001444  00000-0 -72656-4 0  9997,2 54177  53.2167  87.1706 0001383  87.7701 272.3450 15.08839185 13571,6917.883000000001,95.438,540.705,538.7909999999999,0.0
54177.0,STARLINK-5186,PAYLOAD,2023-01-24 03:15:18,15.08828086,9.29e-05,53.217,84.1992,80.539,279.5707,1.2508e-05,-8.9e-07,0.0,0 STARLINK-5186,1 54177U 22141W   23024.13563114 -.00000089  00000-0  12508-4 0  9997,2 54177  53.2170  84.1992 0000929  80.5390 279.5707 15.08828086 13672,6917.917,95.438,540.424,539.139,0.0
54177.0,STARLINK-5186,PAYLOAD,2023-01-24 11:12:13,15.08844812,0.0001135,53.2167,82.7098,82.8547,277.2574,-2.9577e-05,-7.59e-06,0.0,0 STARLINK-5186,1 54177U 22141W   23024.46682462 -.00000759  00000-0 -29577-4 0  9990,2 54177  53.2167  82.7098 0001135  82.8547 277.2574 15.08844812 13726,6917.866,95.437,540.516,538.946,0.0
54177.0,STARLINK-5186,PAYLOAD,2023-01-25 03:06:05,15.08830732,0.0001433,53.2182,79.7366,92.5619,267.5537,2.3053e-05,7.9e-07,0.0,0 STARLINK-5186,1 54177U 22141W   23025.12923347  .00000079  00000-0  23053-4 0  9990,2 54177  53.2182  79.7366 0001433  92.5619 267.5537 15.08830732 13824,6917.909000000001,95.438,540.765,538.7819999999999,0.0
54177.0,STARLINK-5186,PAYLOAD,2023-01-25 11:03:01,15.08832487,0.0001320999999999,53.2175,78.2507,75.7769,284.337,7.7333e-05,9.43e-06,0.0,0 STARLINK-5186,1 54177U 22141W   23025.46043476  .00000943  00000-0  77333-4 0  9993,2 54177  53.2175  78.2507 0001321  75.7769 284.3370 15.08832487 13878,6917.903,95.438,540.682,538.854,0.0
54177.0,STARLINK-5186,PAYLOAD,2023-01-26 10:53:47,15.08845279,0.0001320999999999,53.2177,73.7901,82.801,277.3133,9.9201e-05,1.291e-05,0.0,0 STARLINK-5186,1 54177U 22141W   23026.45402749  .00001291  00000-0  99201-4 0  9990,2 54177  53.2177  73.7901 0001321  82.8010 277.3133 15.08845279 14026,6917.8640000000005,95.437,540.643,538.815,0.0
54177.0,STARLINK-5186,PAYLOAD,2023-01-26 20:26:07,15.08833115,0.0001541,53.2176,72.0065,84.2134,275.9034,0.00023253,3.414e-05,0.0,0 STARLINK-5186,1 54177U 22141W   23026.85147070  .00003414  00000-0  23253-3 0  9999,2 54177  53.2176  72.0065 0001541  84.2134 275.9034 15.08833115 14081,6917.901,95.438,540.832,538.7,0.0
54177.0,STARLINK-5186,PAYLOAD,2023-01-27 09:09:12,15.08835737,0.0001530999999999,53.2177,69.6286,79.9467,280.1698,0.00013007,1.782e-05,0.0,0 STARLINK-5186,1 54177U 22141W   23027.38139037  .00001782  00000-0  13007-3 0  9994,2 54177  53.2177  69.6286 0001531  79.9467 280.1698 15.08835737 14163,6917.893,95.438,540.818,538.6990000000001,0.0
54177.0,STARLINK-5186,PAYLOAD,2023-01-27 20:16:54,15.08840021,0.0001339,53.2169,67.5468,85.7895,274.325,-5.0123e-05,-1.086e-05,0.0,0 STARLINK-5186,1 54177U 22141W   23027.84507250 -.00001086  00000-0 -50123-4 0  9991,2 54177  53.2169  67.5468 0001339  85.7895 274.3250 15.08840021 14238,6917.88,95.438,540.672,538.819,0.0
54177.0,STARLINK-5186,PAYLOAD,2023-01-28 02:38:27,15.08836017,0.0001379,53.2166,66.3568,80.936,279.1788,-4.3312e-05,-9.77e-06,0.0,0 STARLINK-5186,1 54177U 22141W   23028.11003525 -.00000977  00000-0 -43312-4 0  9998,2 54177  53.2166  66.3568 0001379  80.9360 279.1788 15.08836017 14274,6917.893,95.438,540.712,538.804,0.0
54177.0,STARLINK-5186,PAYLOAD,2023-01-28 12:10:45,15.0883997,0.0001351,53.2168,64.5674,108.6994,251.4145,-0.00012171,-2.224e-05,0.0,0 STARLINK-5186,1 54177U 22141W   23028.50747469 -.00002224  00000-0 -12171-3 0  9998,2 54177  53.2168  64.5674 0001351 108.6994 251.4145 15.08839970 14333,6917.88,95.438,540.68,538.811,0.0
